[{"OBJECT_NAME":"YZ-1 R/B","OBJECT_ID":"2015-019C","EPOCH":"2026-04-30T10:07:01.473312","MEAN_MOTION":0.2791938,"ECCENTRICITY":0.6893903,"INCLINATION":13.0372,"RA_OF_ASC_NODE":97.5722,"ARG_OF_PERICENTER":304.7842,"MEAN_ANOMALY":359.4948,"EPHEMERIS_TYPE":0,"CLASSIFICATION_TYPE":"U","NORAD_CAT_ID":41929,"ELEMENT_SET_NO":999,"REV_AT_EPOCH":1063,"BSTAR":0,"MEAN_MOTION_DOT":-1.079e-5,"MEAN_MOTION_DDOT":0},{"OBJECT_NAME":"SBIRS GEO-4 (USA 273)","OBJECT_ID":"2017-004A","EPOCH":"2026-04-26T11:57:19.283040","MEAN_MOTION":1.00272185,"ECCENTRICITY":0.0002325,"INCLINATION":2.1481,"RA_OF_ASC_NODE":41.8141,"ARG_OF_PERICENTER":346.1758,"MEAN_ANOMALY":26.7349,"EPHEMERIS_TYPE":0,"CLASSIFICATION_TYPE":"U","NORAD_CAT_ID":41937,"ELEMENT_SET_NO":999,"REV_AT_EPOCH":3408,"BSTAR":0,"MEAN_MOTION_DOT":1.13e-6,"MEAN_MOTION_DDOT":0},{"OBJECT_NAME":"HISPASAT 36W-1","OBJECT_ID":"2017-006A","EPOCH":"2026-04-26T09:58:22.514304","MEAN_MOTION":1.00271563,"ECCENTRICITY":9.33e-5,"INCLINATION":0.0047,"RA_OF_ASC_NODE":62.9098,"ARG_OF_PERICENTER":321.867,"MEAN_ANOMALY":303.2362,"EPHEMERIS_TYPE":0,"CLASSIFICATION_TYPE":"U","NORAD_CAT_ID":41942,"ELEMENT_SET_NO":999,"REV_AT_EPOCH":3372,"BSTAR":0,"MEAN_MOTION_DOT":-2.57e-6,"MEAN_MOTION_DDOT":0},{"OBJECT_NAME":"TELKOM 3S","OBJECT_ID":"2017-007A","EPOCH":"2026-04-26T10:42:25.788384","MEAN_MOTION":1.0027102,"ECCENTRICITY":0.0002376,"INCLINATION":0.0143,"RA_OF_ASC_NODE":242.2834,"ARG_OF_PERICENTER":156.9233,"MEAN_ANOMALY":93.8537,"EPHEMERIS_TYPE":0,"CLASSIFICATION_TYPE":"U","NORAD_CAT_ID":41944,"ELEMENT_SET_NO":999,"REV_AT_EPOCH":3362,"BSTAR":0,"MEAN_MOTION_DOT":-3.75e-6,"MEAN_MOTION_DDOT":0},{"OBJECT_NAME":"INTELSAT 32E (IS-32E)","OBJECT_ID":"2017-007B","EPOCH":"2026-04-26T11:39:06.031008","MEAN_MOTION":1.00251322,"ECCENTRICITY":0.0001533,"INCLINATION":0.0203,"RA_OF_ASC_NODE":245.2802,"ARG_OF_PERICENTER":69.0348,"MEAN_ANOMALY":31.7753,"EPHEMERIS_TYPE":0,"CLASSIFICATION_TYPE":"U","NORAD_CAT_ID":41945,"ELEMENT_SET_NO":999,"REV_AT_EPOCH":3370,"BSTAR":0,"MEAN_MOTION_DOT":0,"MEAN_MOTION_DDOT":0},{"OBJECT_NAME":"ECHOSTAR 23","OBJECT_ID":"2017-014A","EPOCH":"2026-04-26T12:03:38.628288","MEAN_MOTION":1.0027199,"ECCENTRICITY":0.0002133,"INCLINATION":0.0188,"RA_OF_ASC_NODE":228.5826,"ARG_OF_PERICENTER":171.1884,"MEAN_ANOMALY":245.7428,"EPHEMERIS_TYPE":0,"CLASSIFICATION_TYPE":"U","NORAD_CAT_ID":42070,"ELEMENT_SET_NO":999,"REV_AT_EPOCH":3340,"BSTAR":0,"MEAN_MOTION_DOT":-6.9e-7,"MEAN_MOTION_DDOT":0},{"OBJECT_NAME":"WGS F9 (USA 275)","OBJECT_ID":"2017-016A","EPOCH":"2026-04-26T08:22:36.407136","MEAN_MOTION":1.00270972,"ECCENTRICITY":6.64e-5,"INCLINATION":0.01,"RA_OF_ASC_NODE":236.2594,"ARG_OF_PERICENTER":71.9528,"MEAN_ANOMALY":19.8259,"EPHEMERIS_TYPE":0,"CLASSIFICATION_TYPE":"U","NORAD_CAT_ID":42075,"ELEMENT_SET_NO":999,"REV_AT_EPOCH":3337,"BSTAR":0,"MEAN_MOTION_DOT":-1.09e-6,"MEAN_MOTION_DDOT":0},{"OBJECT_NAME":"SES-10","OBJECT_ID":"2017-017A","EPOCH":"2026-04-26T11:32:14.188992","MEAN_MOTION":1.00271495,"ECCENTRICITY":0.0002839,"INCLINATION":0.0269,"RA_OF_ASC_NODE":15.9226,"ARG_OF_PERICENTER":34.5277,"MEAN_ANOMALY":270.1975,"EPHEMERIS_TYPE":0,"CLASSIFICATION_TYPE":"U","NORAD_CAT_ID":42432,"ELEMENT_SET_NO":999,"REV_AT_EPOCH":3323,"BSTAR":0,"MEAN_MOTION_DOT":-2.85e-6,"MEAN_MOTION_DDOT":0},{"OBJECT_NAME":"CZ-3B DEB","OBJECT_ID":"2010-042Z","EPOCH":"2026-04-22T11:09:50.948064","MEAN_MOTION":1.81283144,"ECCENTRICITY":0.75096549,"INCLINATION":30.1391,"RA_OF_ASC_NODE":267.3191,"ARG_OF_PERICENTER":207.2382,"MEAN_ANOMALY":75.6305,"EPHEMERIS_TYPE":0,"CLASSIFICATION_TYPE":"U","NORAD_CAT_ID":42458,"ELEMENT_SET_NO":999,"REV_AT_EPOCH":7546,"BSTAR":0.0083363713,"MEAN_MOTION_DOT":2.64e-6,"MEAN_MOTION_DDOT":0},{"OBJECT_NAME":"CZ-3B DEB","OBJECT_ID":"2010-042AB","EPOCH":"2026-04-25T03:24:01.402560","MEAN_MOTION":1.90179139,"ECCENTRICITY":0.74854798,"INCLINATION":29.8461,"RA_OF_ASC_NODE":116.6163,"ARG_OF_PERICENTER":78.2044,"MEAN_ANOMALY":350.0391,"EPHEMERIS_TYPE":0,"CLASSIFICATION_TYPE":"U","NORAD_CAT_ID":42460,"ELEMENT_SET_NO":999,"REV_AT_EPOCH":92,"BSTAR":0.0025954883,"MEAN_MOTION_DOT":3.5e-7,"MEAN_MOTION_DDOT":0},{"OBJECT_NAME":"CZ-3B DEB","OBJECT_ID":"2010-042AF","EPOCH":"2026-04-25T23:23:47.872032","MEAN_MOTION":1.82479848,"ECCENTRICITY":0.738289,"INCLINATION":24.5426,"RA_OF_ASC_NODE":287.1422,"ARG_OF_PERICENTER":18.4717,"MEAN_ANOMALY":358.0973,"EPHEMERIS_TYPE":0,"CLASSIFICATION_TYPE":"U","NORAD_CAT_ID":42464,"ELEMENT_SET_NO":999,"REV_AT_EPOCH":8157,"BSTAR":0,"MEAN_MOTION_DOT":1.9e-7,"MEAN_MOTION_DDOT":0},{"OBJECT_NAME":"CZ-3B DEB","OBJECT_ID":"2011-077AL","EPOCH":"2026-04-21T10:03:30.211488","MEAN_MOTION":1.89264854,"ECCENTRICITY":0.74620834,"INCLINATION":26.4671,"RA_OF_ASC_NODE":325.3458,"ARG_OF_PERICENTER":97.7294,"MEAN_ANOMALY":344.0646,"EPHEMERIS_TYPE":0,"CLASSIFICATION_TYPE":"U","NORAD_CAT_ID":42471,"ELEMENT_SET_NO":999,"REV_AT_EPOCH":3361,"BSTAR":0.0018880055,"MEAN_MOTION_DOT":-1.03e-6,"MEAN_MOTION_DDOT":0},{"OBJECT_NAME":"CZ-3B DEB","OBJECT_ID":"2011-077AN","EPOCH":"2026-04-24T12:58:43.736736","MEAN_MOTION":1.69224371,"ECCENTRICITY":0.71623402,"INCLINATION":23.2346,"RA_OF_ASC_NODE":73.3682,"ARG_OF_PERICENTER":86.7351,"MEAN_ANOMALY":345.5363,"EPHEMERIS_TYPE":0,"CLASSIFICATION_TYPE":"U","NORAD_CAT_ID":42473,"ELEMENT_SET_NO":999,"REV_AT_EPOCH":6218,"BSTAR":0,"MEAN_MOTION_DOT":-1.1e-6,"MEAN_MOTION_DDOT":0},{"OBJECT_NAME":"CZ-3B DEB","OBJECT_ID":"2011-077AP","EPOCH":"2026-04-25T10:42:33.391584","MEAN_MOTION":1.66952091,"ECCENTRICITY":0.71496476,"INCLINATION":22.4053,"RA_OF_ASC_NODE":97.7893,"ARG_OF_PERICENTER":56.4027,"MEAN_ANOMALY":352.546,"EPHEMERIS_TYPE":0,"CLASSIFICATION_TYPE":"U","NORAD_CAT_ID":42474,"ELEMENT_SET_NO":999,"REV_AT_EPOCH":6796,"BSTAR":0,"MEAN_MOTION_DOT":-7.2e-7,"MEAN_MOTION_DDOT":0},{"OBJECT_NAME":"CZ-3B DEB","OBJECT_ID":"2011-077AQ","EPOCH":"2026-04-26T06:33:50.520960","MEAN_MOTION":1.91453131,"ECCENTRICITY":0.7420661,"INCLINATION":26.5323,"RA_OF_ASC_NODE":318.5321,"ARG_OF_PERICENTER":105.4116,"MEAN_ANOMALY":340.4814,"EPHEMERIS_TYPE":0,"CLASSIFICATION_TYPE":"U","NORAD_CAT_ID":42475,"ELEMENT_SET_NO":999,"REV_AT_EPOCH":3189,"BSTAR":0.014706,"MEAN_MOTION_DOT":5.2e-7,"MEAN_MOTION_DDOT":0},{"OBJECT_NAME":"ARIANE 2 DEB","OBJECT_ID":"1989-006CM","EPOCH":"2026-04-23T07:24:47.335680","MEAN_MOTION":2.17618768,"ECCENTRICITY":0.66922203,"INCLINATION":8.6671,"RA_OF_ASC_NODE":61.548,"ARG_OF_PERICENTER":137.6132,"MEAN_ANOMALY":315.9392,"EPHEMERIS_TYPE":0,"CLASSIFICATION_TYPE":"U","NORAD_CAT_ID":42485,"ELEMENT_SET_NO":999,"REV_AT_EPOCH":9737,"BSTAR":0,"MEAN_MOTION_DOT":-2.17e-6,"MEAN_MOTION_DDOT":0},{"OBJECT_NAME":"CHINASAT 16 (SJ-13)","OBJECT_ID":"2017-018A","EPOCH":"2026-04-25T20:41:11.973696","MEAN_MOTION":1.00274178,"ECCENTRICITY":0.00046336,"INCLINATION":0.1045,"RA_OF_ASC_NODE":86.8445,"ARG_OF_PERICENTER":163.9351,"MEAN_ANOMALY":23.8943,"EPHEMERIS_TYPE":0,"CLASSIFICATION_TYPE":"U","NORAD_CAT_ID":42662,"ELEMENT_SET_NO":999,"REV_AT_EPOCH":3322,"BSTAR":0,"MEAN_MOTION_DOT":-3.66e-6,"MEAN_MOTION_DDOT":0},{"OBJECT_NAME":"KOREASAT 7","OBJECT_ID":"2017-023A","EPOCH":"2026-04-26T12:24:16.697088","MEAN_MOTION":1.00271734,"ECCENTRICITY":9.88e-5,"INCLINATION":0.0253,"RA_OF_ASC_NODE":332.4824,"ARG_OF_PERICENTER":68.4407,"MEAN_ANOMALY":115.563,"EPHEMERIS_TYPE":0,"CLASSIFICATION_TYPE":"U","NORAD_CAT_ID":42691,"ELEMENT_SET_NO":999,"REV_AT_EPOCH":3285,"BSTAR":0,"MEAN_MOTION_DOT":-3.74e-6,"MEAN_MOTION_DDOT":0},{"OBJECT_NAME":"SGDC","OBJECT_ID":"2017-023B","EPOCH":"2026-04-25T14:45:01.515168","MEAN_MOTION":1.00271416,"ECCENTRICITY":0.0002773,"INCLINATION":0.0132,"RA_OF_ASC_NODE":99.6902,"ARG_OF_PERICENTER":305.1902,"MEAN_ANOMALY":315.142,"EPHEMERIS_TYPE":0,"CLASSIFICATION_TYPE":"U","NORAD_CAT_ID":42692,"ELEMENT_SET_NO":999,"REV_AT_EPOCH":3288,"BSTAR":0,"MEAN_MOTION_DOT":0,"MEAN_MOTION_DDOT":0},{"OBJECT_NAME":"GSAT-9","OBJECT_ID":"2017-024A","EPOCH":"2026-04-26T12:19:09.689376","MEAN_MOTION":1.00275139,"ECCENTRICITY":0.0002343,"INCLINATION":0.0463,"RA_OF_ASC_NODE":61.0935,"ARG_OF_PERICENTER":336.1136,"MEAN_ANOMALY":99.403,"EPHEMERIS_TYPE":0,"CLASSIFICATION_TYPE":"U","NORAD_CAT_ID":42695,"ELEMENT_SET_NO":999,"REV_AT_EPOCH":3278,"BSTAR":0,"MEAN_MOTION_DOT":-2.99e-6,"MEAN_MOTION_DDOT":0},{"OBJECT_NAME":"INMARSAT 5-F4","OBJECT_ID":"2017-025A","EPOCH":"2026-04-26T12:07:25.815360","MEAN_MOTION":1.0027073,"ECCENTRICITY":7.5e-6,"INCLINATION":0.0148,"RA_OF_ASC_NODE":237.6702,"ARG_OF_PERICENTER":116.4027,"MEAN_ANOMALY":98.8135,"EPHEMERIS_TYPE":0,"CLASSIFICATION_TYPE":"U","NORAD_CAT_ID":42698,"ELEMENT_SET_NO":999,"REV_AT_EPOCH":3275,"BSTAR":0,"MEAN_MOTION_DOT":0,"MEAN_MOTION_DDOT":0},{"OBJECT_NAME":"SES-15","OBJECT_ID":"2017-026A","EPOCH":"2026-04-26T11:47:38.764032","MEAN_MOTION":1.00270678,"ECCENTRICITY":6.87e-5,"INCLINATION":0.0246,"RA_OF_ASC_NODE":323.5055,"ARG_OF_PERICENTER":42.7551,"MEAN_ANOMALY":255.9922,"EPHEMERIS_TYPE":0,"CLASSIFICATION_TYPE":"U","NORAD_CAT_ID":42709,"ELEMENT_SET_NO":999,"REV_AT_EPOCH":691,"BSTAR":0,"MEAN_MOTION_DOT":4.7e-7,"MEAN_MOTION_DDOT":0},{"OBJECT_NAME":"COSMOS 2518","OBJECT_ID":"2017-027A","EPOCH":"2026-04-25T19:51:36.227232","MEAN_MOTION":2.00958723,"ECCENTRICITY":0.6999252,"INCLINATION":63.0862,"RA_OF_ASC_NODE":254.7226,"ARG_OF_PERICENTER":273.5933,"MEAN_ANOMALY":15.6358,"EPHEMERIS_TYPE":0,"CLASSIFICATION_TYPE":"U","NORAD_CAT_ID":42719,"ELEMENT_SET_NO":999,"REV_AT_EPOCH":6535,"BSTAR":0,"MEAN_MOTION_DOT":-1.378e-5,"MEAN_MOTION_DDOT":0},{"OBJECT_NAME":"QZS-2 (MICHIBIKI-2)","OBJECT_ID":"2017-028A","EPOCH":"2026-04-26T05:37:22.428768","MEAN_MOTION":1.0024752,"ECCENTRICITY":0.0740318,"INCLINATION":39.5095,"RA_OF_ASC_NODE":243.912,"ARG_OF_PERICENTER":270.8047,"MEAN_ANOMALY":281.9812,"EPHEMERIS_TYPE":0,"CLASSIFICATION_TYPE":"U","NORAD_CAT_ID":42738,"ELEMENT_SET_NO":999,"REV_AT_EPOCH":710,"BSTAR":0,"MEAN_MOTION_DOT":-2.66e-6,"MEAN_MOTION_DDOT":0}]
